{
    "links": {
        "self": "http://www.neowsapp.com/rest/v1/neo/3404129?api_key=iIulBulltgU6a56xZRHN4H3l9WmuAYTsLGpBGhQ2"
    },
    "id": "3404129",
    "neo_reference_id": "3404129",
    "name": "(2008 DG4)",
    "designation": "2008 DG4",
    "nasa_jpl_url": "http://ssd.jpl.nasa.gov/sbdb.cgi?sstr=3404129",
    "absolute_magnitude_h": 23.8,
    "estimated_diameter": {
        "kilometers": {
            "estimated_diameter_min": 0.046190746,
            "estimated_diameter_max": 0.1032856481
        },
        "meters": {
            "estimated_diameter_min": 46.1907460282,
            "estimated_diameter_max": 103.2856480504
        },
        "miles": {
            "estimated_diameter_min": 0.0287015901,
            "estimated_diameter_max": 0.0641787064
        },
        "feet": {
            "estimated_diameter_min": 151.544447199,
            "estimated_diameter_max": 338.8636855496
        }
    },
    "is_potentially_hazardous_asteroid": false,
    "close_approach_data": [
        {
            "close_approach_date": "2008-02-17",
            "close_approach_date_full": "2008-Feb-17 08:55",
            "epoch_date_close_approach": 1203238500000,
            "relative_velocity": {
                "kilometers_per_second": "12.41254667",
                "kilometers_per_hour": "44685.1680121318",
                "miles_per_hour": "27765.6256462049"
            },
            "miss_distance": {
                "astronomical": "0.0155961956",
                "lunar": "6.0669200884",
                "kilometers": "2333157.641863372",
                "miles": "1449756.9325316536"
            },
            "orbiting_body": "Earth"
        }
    ],
    "orbital_data": {
        "orbit_id": "13",
        "orbit_determination_date": "2017-04-06 09:04:15",
        "first_observation_date": "2008-02-27",
        "last_observation_date": "2008-03-05",
        "data_arc_in_days": 7,
        "observations_used": 43,
        "orbit_uncertainty": "8",
        "minimum_orbit_intersection": ".0100285",
        "jupiter_tisserand_invariant": "3.149",
        "epoch_osculation": "2454525.5",
        "eccentricity": ".6425864320759013",
        "semi_major_axis": "2.491085443277735",
        "inclination": "1.850230860152725",
        "ascending_node_longitude": "164.3591845210477",
        "orbital_period": "1436.089023502638",
        "perihelion_distance": ".8903477362856805",
        "perihelion_argument": "300.0084394477863",
        "aphelion_distance": "4.091823150269791",
        "perihelion_time": "2454483.034754799345",
        "mean_anomaly": "10.64522325708572",
        "mean_motion": ".2506808381014959",
        "equinox": "J2000",
        "orbit_class": {
            "orbit_class_type": "APO",
            "orbit_class_description": "Near-Earth asteroid orbits which cross the Earth’s orbit similar to that of 1862 Apollo",
            "orbit_class_range": "a (semi-major axis) > 1.0 AU; q (perihelion) < 1.017 AU"
        }
    },
    "is_sentry_object": false
}